{
  "norad_id": 66338,
  "name": "STARLINK-35477",
  "history": [
    {
      "epoch": "2026-03-28T18:28:05.645856Z",
      "apogee_km": 484.0621122160246,
      "perigee_km": 481.99978235442904,
      "latitude_deg": -3.2698964507087754e-05,
      "longitude_deg": 1.4472413951747773,
      "height_km": 482.9665670167996,
      "semi_major_axis_km": 6861.167947285227,
      "eccentricity": 0.00015029,
      "inclination_deg": 43.0009,
      "raan_deg": 104.656,
      "arg_perigee_deg": 261.143,
      "mean_anomaly_deg": 98.9251,
      "mean_motion_rev_day": 15.27586061
    }
  ]
}